[{"OBJECT_NAME":"TIANPING 2C","OBJECT_ID":"2022-032D","EPOCH":"2026-03-09T22:24:23.522112","MEAN_MOTION":15.10225163,"ECCENTRICITY":0.00079422,"INCLINATION":97.5961,"RA_OF_ASC_NODE":122.1196,"ARG_OF_PERICENTER":128.8925,"MEAN_ANOMALY":231.3013,"EPHEMERIS_TYPE":0,"CLASSIFICATION_TYPE":"U","NORAD_CAT_ID":52156,"ELEMENT_SET_NO":999,"REV_AT_EPOCH":21586,"BSTAR":0.00036090623,"MEAN_MOTION_DOT":5.841e-5,"MEAN_MOTION_DDOT":0},{"OBJECT_NAME":"STARLINK-4710","OBJECT_ID":"2022-111AC","EPOCH":"2026-03-09T19:27:39.444480","MEAN_MOTION":15.08840113,"ECCENTRICITY":0.00013588,"INCLINATION":53.2169,"RA_OF_ASC_NODE":263.6492,"ARG_OF_PERICENTER":88.0615,"MEAN_ANOMALY":272.0532,"EPHEMERIS_TYPE":0,"CLASSIFICATION_TYPE":"U","NORAD_CAT_ID":53799,"ELEMENT_SET_NO":999,"REV_AT_EPOCH":19383,"BSTAR":5.171456e-5,"MEAN_MOTION_DOT":5.35e-6,"MEAN_MOTION_DDOT":0}]
